COMMENT,ORIGINATOR,NORAD_CAT_ID,OBJECT_NAME,OBJECT_TYPE,CLASSIFICATION_TYPE,INTLDES,EPOCH,EPOCH_MICROSECONDS,MEAN_MOTION,ECCENTRICITY,INCLINATION,RA_OF_ASC_NODE,ARG_OF_PERICENTER,MEAN_ANOMALY,EPHEMERIS_TYPE,ELEMENT_SET_NO,REV_AT_EPOCH,BSTAR,MEAN_MOTION_DOT,MEAN_MOTION_DDOT,FILE,TLE_LINE0,TLE_LINE1,TLE_LINE2,OBJECT_ID,OBJECT_NUMBER,SEMIMAJOR_AXIS,PERIOD,APOGEE,PERIGEE,DECAYED
"GENERATED VIA SPACETRACK.ORG API","18 SPCS","48897","SPACEBEE-109","PAYLOAD","U","21059U","2022-11-22 20:57:12","344256","15.19658137","0.000783","97.576","96.4611","273.6561","86.3777","0","999","7796","0.00043169","0.00009147","0","3667517","0 SPACEBEE-109","1 48897U 21059U   22326.87305954  .00009147  00000-0  43169-3 0  9996","2 48897  97.5760  96.4611 0007830 273.6561  86.3777 15.19658137 77960","2021-059U","48897","6885.010","94.758","512.266","501.484","0"
"GENERATED VIA SPACETRACK.ORG API","18 SPCS","48897","SPACEBEE-109","PAYLOAD","U","21059U","2022-11-22 22:32:01","446432","15.19659377","0.000784","97.5759","96.5272","273.5579","86.4759","0","999","7797","0.00042936","0.00009098","0","3667626","0 SPACEBEE-109","1 48897U 21059U   22326.93890563  .00009098  00000-0  42936-3 0  9994","2 48897  97.5759  96.5272 0007840 273.5579  86.4759 15.19659377 77970","2021-059U","48897","6885.006","94.758","512.269","501.473","0"
"GENERATED VIA SPACETRACK.ORG API","18 SPCS","48897","SPACEBEE-109","PAYLOAD","U","21059U","2022-11-23 08:00:55","967904","15.19666436","0.0007862","97.5761","96.9238","271.9299","88.1035","0","999","7803","0.00039923","0.00008456","0","3668134","0 SPACEBEE-109","1 48897U 21059U   22327.33398111  .00008456  00000-0  39923-3 0  9990","2 48897  97.5761  96.9238 0007862 271.9299  88.1035 15.19666436 78032","2021-059U","48897","6884.985","94.758","512.263","501.437","0"
"GENERATED VIA SPACETRACK.ORG API","18 SPCS","48897","SPACEBEE-109","PAYLOAD","U","21059U","2022-11-23 14:20:12","217632","15.19671714","0.0007891","97.5762","97.1881","270.8956","89.1374","0","999","7807","0.00043345","0.00009189","0","3668355","0 SPACEBEE-109","1 48897U 21059U   22327.59736363  .00009189  00000-0  43345-3 0  9990","2 48897  97.5762  97.1881 0007891 270.8956  89.1374 15.19671714 78076","2021-059U","48897","6884.969","94.757","512.267","501.401","0"
"GENERATED VIA SPACETRACK.ORG API","18 SPCS","48897","SPACEBEE-109","PAYLOAD","U","21059U","2022-11-24 07:43:11","531136","15.19686785","0.0007913","97.5764","97.9152","268.0692","91.9636","0","999","7818","0.00047086","0.00009993","0","3668863","0 SPACEBEE-109","1 48897U 21059U   22328.32166124  .00009993  00000-0  47086-3 0  9993","2 48897  97.5764  97.9152 0007913 268.0692  91.9636 15.19686785 78186","2021-059U","48897","6884.923","94.756","512.237","501.340","0"
"GENERATED VIA SPACETRACK.ORG API","18 SPCS","48897","SPACEBEE-109","PAYLOAD","U","21059U","2022-11-24 07:43:11","531136","15.19686785","0.0007913","97.5764","97.9152","268.0692","91.9636","0","999","7818","0.00047086","0.00009993","0","3669022","0 SPACEBEE-109","1 48897U 21059U   22328.32166124  .00009993  00000-0  47086-3 0  9993","2 48897  97.5764  97.9152 0007913 268.0692  91.9636 15.19686785 78186","2021-059U","48897","6884.923","94.756","512.237","501.340","0"
"GENERATED VIA SPACETRACK.ORG API","18 SPCS","48897","SPACEBEE-109","PAYLOAD","U","21059U","2022-11-25 07:25:25","988448","15.19706593","0.000787","97.5768","98.9067","264.2557","95.778","0","999","7833","0.00045673","0.00009697","0","3669850","0 SPACEBEE-109","1 48897U 21059U   22329.30932857  .00009697  00000-0  45673-3 0  9997","2 48897  97.5768  98.9067 0007870 264.2557  95.7780 15.19706593 78335","2021-059U","48897","6884.864","94.755","512.147","501.310","0"
"GENERATED VIA SPACETRACK.ORG API","18 SPCS","48897","SPACEBEE-109","PAYLOAD","U","21059U","2022-11-25 20:03:57","168576","15.19721045","0.0007849","97.5769","99.4355","262.137","97.8974","0","999","7841","0.00054944","0.00011687","0","3670141","0 SPACEBEE-109","1 48897U 21059U   22329.83607834  .00011687  00000-0  54944-3 0  9992","2 48897  97.5769  99.4355 0007849 262.1370  97.8974 15.19721045 78414","2021-059U","48897","6884.820","94.754","512.089","501.281","0"
"GENERATED VIA SPACETRACK.ORG API","18 SPCS","48897","SPACEBEE-109","PAYLOAD","U","21059U","2022-11-26 02:23:12","608736","15.19727784","0.0007849","97.5771","99.6999","261.2204","98.8142","0","999","7845","0.00058043","0.00012354","0","3670253","0 SPACEBEE-109","1 48897U 21059U   22330.09945149  .00012354  00000-0  58043-3 0  9992","2 48897  97.5771  99.6999 0007849 261.2204  98.8142 15.19727784 78457","2021-059U","48897","6884.800","94.754","512.069","501.261","0"
"GENERATED VIA SPACETRACK.ORG API","18 SPCS","48897","SPACEBEE-109","PAYLOAD","U","21059U","2022-11-26 08:42:27","930528","15.19735936","0.0007804","97.577","99.9642","260.0846","99.9508","0","999","7849","0.00061095","0.00013011","0","3670770","0 SPACEBEE-109","1 48897U 21059U   22330.36282327  .00013011  00000-0  61095-3 0  9996","2 48897  97.5770  99.9642 0007804 260.0846  99.9508 15.19735936 78494","2021-059U","48897","6884.775","94.753","512.013","501.267","0"
"GENERATED VIA SPACETRACK.ORG API","18 SPCS","48897","SPACEBEE-109","PAYLOAD","U","21059U","2022-11-26 19:46:09","537600","15.197454","0.0007812","97.577","100.427","258.2648","101.771","0","999","7856","0.00052834","0.00011243","0","3671048","0 SPACEBEE-109","1 48897U 21059U   22330.82372150  .00011243  00000-0  52834-3 0  9997","2 48897  97.5770 100.4270 0007812 258.2648 101.7710 15.19745400 78569","2021-059U","48897","6884.746","94.753","511.990","501.233","0"
"GENERATED VIA SPACETRACK.ORG API","18 SPCS","48897","SPACEBEE-109","PAYLOAD","U","21059U","2022-11-27 08:24:39","569472","15.19758412","0.0007821","97.5769","100.9556","256.3118","103.7246","0","999","7864","0.00051179","0.00010892","0","3671450","0 SPACEBEE-109","1 48897U 21059U   22331.35045798  .00010892  00000-0  51179-3 0  9991","2 48897  97.5769 100.9556 0007821 256.3118 103.7246 15.19758412 78642","2021-059U","48897","6884.707","94.752","511.957","501.188","0"
"GENERATED VIA SPACETRACK.ORG API","18 SPCS","48897","SPACEBEE-109","PAYLOAD","U","21059U","2022-11-27 08:24:39","569472","15.19758412","0.0007821","97.5769","100.9556","256.3118","103.7246","0","999","7864","0.00051179","0.00010892","0","3671616","0 SPACEBEE-109","1 48897U 21059U   22331.35045798  .00010892  00000-0  51179-3 0  9991","2 48897  97.5769 100.9556 0007821 256.3118 103.7246 15.19758412 78642","2021-059U","48897","6884.707","94.752","511.957","501.188","0"
"GENERATED VIA SPACETRACK.ORG API","18 SPCS","48897","SPACEBEE-109","PAYLOAD","U","21059U","2022-11-27 19:28:20","591616","15.19767808","0.0007835","97.5767","101.4183","254.5302","105.5067","0","999","7871","0.00048816","0.00010388","0","3671921","0 SPACEBEE-109","1 48897U 21059U   22331.81134944  .00010388  00000-0  48816-3 0  9998","2 48897  97.5767 101.4183 0007835 254.5302 105.5067 15.19767808 78710","2021-059U","48897","6884.679","94.751","511.938","501.150","0"
"GENERATED VIA SPACETRACK.ORG API","18 SPCS","48897","SPACEBEE-109","PAYLOAD","U","21059U","2022-11-28 08:06:49","988448","15.19780811","0.0007876","97.5767","101.9472","252.6058","107.4315","0","999","7879","0.00053521","0.00011402","0","3672745","0 SPACEBEE-109","1 48897U 21059U   22332.33807857  .00011402  00000-0  53521-3 0  9993","2 48897  97.5767 101.9472 0007876 252.6058 107.4315 15.19780811 78792","2021-059U","48897","6884.639","94.751","511.927","501.082","0"
"GENERATED VIA SPACETRACK.ORG API","18 SPCS","48897","SPACEBEE-109","PAYLOAD","U","21059U","2022-11-29 07:48:59","158944","15.19803767","0.0007942","97.5764","102.9385","249.0154","111.0231","0","999","7894","0.00057209","0.00012202","0","3673177","0 SPACEBEE-109","1 48897U 21059U   22333.32568471  .00012202  00000-0  57209-3 0  9995","2 48897  97.5764 102.9385 0007942 249.0154 111.0231 15.19803767 78945","2021-059U","48897","6884.570","94.749","511.903","500.967","0"
"GENERATED VIA SPACETRACK.ORG API","18 SPCS","48897","SPACEBEE-109","PAYLOAD","U","21059U","2022-11-29 07:48:59","158944","15.19803767","0.0007942","97.5764","102.9385","249.0154","111.0231","0","999","7894","0.00057209","0.00012202","0","3673336","0 SPACEBEE-109","1 48897U 21059U   22333.32568471  .00012202  00000-0  57209-3 0  9995","2 48897  97.5764 102.9385 0007942 249.0154 111.0231 15.19803767 78945","2021-059U","48897","6884.570","94.749","511.903","500.967","0"
"GENERATED VIA SPACETRACK.ORG API","18 SPCS","48897","SPACEBEE-109","PAYLOAD","U","21059U","2022-11-29 18:52:38","989632","15.19814772","0.0007948","97.5763","103.4011","247.1593","112.8803","0","999","7901","0.0005863","0.00012512","0","3673849","0 SPACEBEE-109","1 48897U 21059U   22333.78656238  .00012512  00000-0  58630-3 0  9997","2 48897  97.5763 103.4011 0007948 247.1593 112.8803 15.19814772 79019","2021-059U","48897","6884.537","94.748","511.874","500.930","0"
"GENERATED VIA SPACETRACK.ORG API","18 SPCS","48897","SPACEBEE-109","PAYLOAD","U","21059U","2022-11-30 07:31:07","8384","15.1982668","0.0007947","97.5764","103.93","244.9426","115.0984","0","999","7909","0.00054305","0.00011586","0","3675646","0 SPACEBEE-109","1 48897U 21059U   22334.31327556  .00011586  00000-0  54305-3 0  9990","2 48897  97.5764 103.9300 0007947 244.9426 115.0984 15.19826680 79099","2021-059U","48897","6884.501","94.748","511.837","500.895","0"
"GENERATED VIA SPACETRACK.ORG API","18 SPCS","48897","SPACEBEE-109","PAYLOAD","U","21059U","2022-12-01 02:28:48","316800","15.19845984","0.0007929","97.5762","104.7232","241.6796","118.3639","0","999","7921","0.00054976","0.00011737","0","3676663","0 SPACEBEE-109","1 48897U 21059U   22335.10333700  .00011737  00000-0  54976-3 0  9998","2 48897  97.5762 104.7232 0007929 241.6796 118.3639 15.19845984 79219","2021-059U","48897","6884.443","94.746","511.766","500.849","0"
